KUIPER-00274            
1 67792U 26030AE  26059.28763024  .00023446  00000+0  75962-3 0  9996
2 67792  51.8837 264.7964 0017124  42.0937 318.1360 15.31764674  3642
KUIPER-00275            
1 67793U 26030AF  26059.26836248  .00018518  00000+0  55903-3 0  9991
2 67793  51.8834 264.6759 0008701  27.8734 332.2716 15.34277582  3640
KUIPER-00276            
1 67794U 26030AG  26059.16063461 -.00005709  00000+0 -17145-3 0  9996
2 67794  51.8828 265.4424 0018223  37.5847 322.6408 15.31590439  3620
KUIPER-00279            
1 67795U 26030AH  26059.26379227  .00020107  00000+0  59404-3 0  9999
2 67795  51.8791 264.6384 0006093  24.1548 335.9722 15.34919087  3643
CREW DRAGON 12          
1 67796U 26031A   26059.21983326  .00010172  00000+0  19675-3 0  9994
2 67796  51.6325 119.1716 0008306 141.5469 218.6112 15.48355484554600
STARLINK-36800          
1 67797U 26032A   26059.29157117 -.00862728  00000+0 -59320-2 0  9999
2 67797  97.2850 245.3095 0001173  56.0833 304.0545 15.76893099  3308
STARLINK-36798          
1 67798U 26032B   26059.28916137  .00385498  00000+0  19167-2 0  9991
2 67798  97.2845 245.3115 0001150 106.6368 253.5027 15.80918384  3309
STARLINK-36804          
1 67799U 26032C   26059.28973666 -.00881535  00000+0 -61874-2 0  9999
2 67799  97.2847 245.3131 0001254  59.5387 300.6003 15.76477871  3306
STARLINK-36354          
1 67800U 26032D   26059.22388277  .00315289  00000+0  15780-2 0  9995
2 67800  97.2854 245.2494 0001122  76.8774 283.2619 15.80954495  3298
STARLINK-36773          
1 67801U 26032E   26059.28696771 -.00860023  00000+0 -55614-2 0  9996
2 67801  97.2852 245.3171 0002624 326.5234  33.5867 15.78245679  3301
STARLINK-36739          
1 67802U 26032F   26059.22110338  .00272417  00000+0  13730-2 0  9996
2 67802  97.2844 245.2521 0001944  64.7111 295.4359 15.80911728  3291
STARLINK-36768          
1 67803U 26032G   26058.96880902  .00554109  00000+0  26835-2 0  9999
2 67803  97.2854 244.9833 0001853  40.7225 319.4182 15.81063139  3256
