CCSDS_OMM_VERS = 2.0
CREATION_DATE  = 
ORIGINATOR     = 

OBJECT_NAME    = KUIPER-00274
OBJECT_ID      = 2026-030AE
CENTER_NAME    = EARTH
REF_FRAME      = TEME
TIME_SYSTEM    = UTC
MEAN_ELEMENT_THEORY = SGP/SGP4

EPOCH          = 2026-02-28T06:54:11.252736
MEAN_MOTION    = 15.31764674
ECCENTRICITY   = .00171244
INCLINATION    = 51.8837
RA_OF_ASC_NODE = 264.7964
ARG_OF_PERICENTER = 42.0937
MEAN_ANOMALY   = 318.1360

EPHEMERIS_TYPE = 0
CLASSIFICATION_TYPE = U
NORAD_CAT_ID   = 67792
ELEMENT_SET_NO = 999
REV_AT_EPOCH   = 364
BSTAR          = .7596222E-3
MEAN_MOTION_DOT = .23446E-3
MEAN_MOTION_DDOT = 0

CCSDS_OMM_VERS = 2.0
CREATION_DATE  = 
ORIGINATOR     = 

OBJECT_NAME    = KUIPER-00275
OBJECT_ID      = 2026-030AF
CENTER_NAME    = EARTH
REF_FRAME      = TEME
TIME_SYSTEM    = UTC
MEAN_ELEMENT_THEORY = SGP/SGP4

EPOCH          = 2026-02-28T06:26:26.518272
MEAN_MOTION    = 15.34277582
ECCENTRICITY   = .00087013
INCLINATION    = 51.8834
RA_OF_ASC_NODE = 264.6759
ARG_OF_PERICENTER = 27.8734
MEAN_ANOMALY   = 332.2716

EPHEMERIS_TYPE = 0
CLASSIFICATION_TYPE = U
NORAD_CAT_ID   = 67793
ELEMENT_SET_NO = 999
REV_AT_EPOCH   = 364
BSTAR          = .55903275E-3
MEAN_MOTION_DOT = .18518E-3
MEAN_MOTION_DDOT = 0

CCSDS_OMM_VERS = 2.0
CREATION_DATE  = 
ORIGINATOR     = 

OBJECT_NAME    = KUIPER-00276
OBJECT_ID      = 2026-030AG
CENTER_NAME    = EARTH
REF_FRAME      = TEME
TIME_SYSTEM    = UTC
MEAN_ELEMENT_THEORY = SGP/SGP4

EPOCH          = 2026-02-28T03:51:18.830304
MEAN_MOTION    = 15.31590439
ECCENTRICITY   = .00182232
INCLINATION    = 51.8828
RA_OF_ASC_NODE = 265.4424
ARG_OF_PERICENTER = 37.5847
MEAN_ANOMALY   = 322.6408

EPHEMERIS_TYPE = 0
CLASSIFICATION_TYPE = U
NORAD_CAT_ID   = 67794
ELEMENT_SET_NO = 999
REV_AT_EPOCH   = 362
BSTAR          = -.17144543E-3
MEAN_MOTION_DOT = -.5709E-4
MEAN_MOTION_DDOT = 0

CCSDS_OMM_VERS = 2.0
CREATION_DATE  = 
ORIGINATOR     = 

OBJECT_NAME    = KUIPER-00279
OBJECT_ID      = 2026-030AH
CENTER_NAME    = EARTH
REF_FRAME      = TEME
TIME_SYSTEM    = UTC
MEAN_ELEMENT_THEORY = SGP/SGP4

EPOCH          = 2026-02-28T06:19:51.652128
MEAN_MOTION    = 15.34919087
ECCENTRICITY   = .00060931
INCLINATION    = 51.8791
RA_OF_ASC_NODE = 264.6384
ARG_OF_PERICENTER = 24.1548
MEAN_ANOMALY   = 335.9722

EPHEMERIS_TYPE = 0
CLASSIFICATION_TYPE = U
NORAD_CAT_ID   = 67795
ELEMENT_SET_NO = 999
REV_AT_EPOCH   = 364
BSTAR          = .59403618E-3
MEAN_MOTION_DOT = .20107E-3
MEAN_MOTION_DDOT = 0

CCSDS_OMM_VERS = 2.0
CREATION_DATE  = 
ORIGINATOR     = 

OBJECT_NAME    = CREW DRAGON 12
OBJECT_ID      = 2026-031A
CENTER_NAME    = EARTH
REF_FRAME      = TEME
TIME_SYSTEM    = UTC
MEAN_ELEMENT_THEORY = SGP/SGP4

EPOCH          = 2026-02-28T05:16:33.593664
MEAN_MOTION    = 15.48355484
ECCENTRICITY   = .00083063
INCLINATION    = 51.6325
RA_OF_ASC_NODE = 119.1716
ARG_OF_PERICENTER = 141.5469
MEAN_ANOMALY   = 218.6112

EPHEMERIS_TYPE = 0
CLASSIFICATION_TYPE = U
NORAD_CAT_ID   = 67796
ELEMENT_SET_NO = 999
REV_AT_EPOCH   = 55460
BSTAR          = .19674511E-3
MEAN_MOTION_DOT = .10172E-3
MEAN_MOTION_DDOT = 0

CCSDS_OMM_VERS = 2.0
CREATION_DATE  = 
ORIGINATOR     = 

OBJECT_NAME    = STARLINK-36800
OBJECT_ID      = 2026-032A
CENTER_NAME    = EARTH
REF_FRAME      = TEME
TIME_SYSTEM    = UTC
MEAN_ELEMENT_THEORY = SGP/SGP4

EPOCH          = 2026-02-28T06:59:51.749088
MEAN_MOTION    = 15.76893099
ECCENTRICITY   = .00011734
INCLINATION    = 97.2850
RA_OF_ASC_NODE = 245.3095
ARG_OF_PERICENTER = 56.0833
MEAN_ANOMALY   = 304.0545

EPHEMERIS_TYPE = 0
CLASSIFICATION_TYPE = U
NORAD_CAT_ID   = 67797
ELEMENT_SET_NO = 999
REV_AT_EPOCH   = 330
BSTAR          = -.59320007E-2
MEAN_MOTION_DOT = -.862728E-2
MEAN_MOTION_DDOT = 0

CCSDS_OMM_VERS = 2.0
CREATION_DATE  = 
ORIGINATOR     = 

OBJECT_NAME    = STARLINK-36798
OBJECT_ID      = 2026-032B
CENTER_NAME    = EARTH
REF_FRAME      = TEME
TIME_SYSTEM    = UTC
MEAN_ELEMENT_THEORY = SGP/SGP4

EPOCH          = 2026-02-28T06:56:23.542368
MEAN_MOTION    = 15.80918384
ECCENTRICITY   = .00011505
INCLINATION    = 97.2845
RA_OF_ASC_NODE = 245.3115
ARG_OF_PERICENTER = 106.6368
MEAN_ANOMALY   = 253.5027

EPHEMERIS_TYPE = 0
CLASSIFICATION_TYPE = U
NORAD_CAT_ID   = 67798
ELEMENT_SET_NO = 999
REV_AT_EPOCH   = 330
BSTAR          = .19166867E-2
MEAN_MOTION_DOT = .385498E-2
MEAN_MOTION_DDOT = 0

CCSDS_OMM_VERS = 2.0
CREATION_DATE  = 
ORIGINATOR     = 

OBJECT_NAME    = STARLINK-36804
OBJECT_ID      = 2026-032C
CENTER_NAME    = EARTH
REF_FRAME      = TEME
TIME_SYSTEM    = UTC
MEAN_ELEMENT_THEORY = SGP/SGP4

EPOCH          = 2026-02-28T06:57:13.247424
MEAN_MOTION    = 15.76477871
ECCENTRICITY   = .00012546
INCLINATION    = 97.2847
RA_OF_ASC_NODE = 245.3131
ARG_OF_PERICENTER = 59.5387
MEAN_ANOMALY   = 300.6003

EPHEMERIS_TYPE = 0
CLASSIFICATION_TYPE = U
NORAD_CAT_ID   = 67799
ELEMENT_SET_NO = 999
REV_AT_EPOCH   = 330
BSTAR          = -.61874285E-2
MEAN_MOTION_DOT = -.881535E-2
MEAN_MOTION_DDOT = 0

CCSDS_OMM_VERS = 2.0
CREATION_DATE  = 
ORIGINATOR     = 

OBJECT_NAME    = STARLINK-36354
OBJECT_ID      = 2026-032D
CENTER_NAME    = EARTH
REF_FRAME      = TEME
TIME_SYSTEM    = UTC
MEAN_ELEMENT_THEORY = SGP/SGP4

EPOCH          = 2026-02-28T05:22:23.471328
MEAN_MOTION    = 15.80954495
ECCENTRICITY   = .00011226
INCLINATION    = 97.2854
RA_OF_ASC_NODE = 245.2494
ARG_OF_PERICENTER = 76.8774
MEAN_ANOMALY   = 283.2619

EPHEMERIS_TYPE = 0
CLASSIFICATION_TYPE = U
NORAD_CAT_ID   = 67800
ELEMENT_SET_NO = 999
REV_AT_EPOCH   = 329
BSTAR          = .15779796E-2
MEAN_MOTION_DOT = .315289E-2
MEAN_MOTION_DDOT = 0

CCSDS_OMM_VERS = 2.0
CREATION_DATE  = 
ORIGINATOR     = 

OBJECT_NAME    = STARLINK-36773
OBJECT_ID      = 2026-032E
CENTER_NAME    = EARTH
REF_FRAME      = TEME
TIME_SYSTEM    = UTC
MEAN_ELEMENT_THEORY = SGP/SGP4

EPOCH          = 2026-02-28T06:53:14.010144
MEAN_MOTION    = 15.78245679
ECCENTRICITY   = .00026243
INCLINATION    = 97.2852
RA_OF_ASC_NODE = 245.3171
ARG_OF_PERICENTER = 326.5234
MEAN_ANOMALY   = 33.5867

EPHEMERIS_TYPE = 0
CLASSIFICATION_TYPE = U
NORAD_CAT_ID   = 67801
ELEMENT_SET_NO = 999
REV_AT_EPOCH   = 330
BSTAR          = -.55613765E-2
MEAN_MOTION_DOT = -.860023E-2
MEAN_MOTION_DDOT = 0

CCSDS_OMM_VERS = 2.0
CREATION_DATE  = 
ORIGINATOR     = 

OBJECT_NAME    = STARLINK-36739
OBJECT_ID      = 2026-032F
CENTER_NAME    = EARTH
REF_FRAME      = TEME
TIME_SYSTEM    = UTC
MEAN_ELEMENT_THEORY = SGP/SGP4

EPOCH          = 2026-02-28T05:18:23.332032
MEAN_MOTION    = 15.80911728
ECCENTRICITY   = .00019446
INCLINATION    = 97.2844
RA_OF_ASC_NODE = 245.2521
ARG_OF_PERICENTER = 64.7111
MEAN_ANOMALY   = 295.4359

EPHEMERIS_TYPE = 0
CLASSIFICATION_TYPE = U
NORAD_CAT_ID   = 67802
ELEMENT_SET_NO = 999
REV_AT_EPOCH   = 329
BSTAR          = .13729734E-2
MEAN_MOTION_DOT = .272417E-2
MEAN_MOTION_DDOT = 0

CCSDS_OMM_VERS = 2.0
CREATION_DATE  = 
ORIGINATOR     = 

OBJECT_NAME    = STARLINK-36768
OBJECT_ID      = 2026-032G
CENTER_NAME    = EARTH
REF_FRAME      = TEME
TIME_SYSTEM    = UTC
MEAN_ELEMENT_THEORY = SGP/SGP4

EPOCH          = 2026-02-27T23:15:05.099328
MEAN_MOTION    = 15.81063139
ECCENTRICITY   = .0001853
INCLINATION    = 97.2854
RA_OF_ASC_NODE = 244.9833
ARG_OF_PERICENTER = 40.7225
MEAN_ANOMALY   = 319.4182

EPHEMERIS_TYPE = 0
CLASSIFICATION_TYPE = U
NORAD_CAT_ID   = 67803
ELEMENT_SET_NO = 999
REV_AT_EPOCH   = 325
BSTAR          = .26835E-2
MEAN_MOTION_DOT = .554109E-2
MEAN_MOTION_DDOT = 0

